{
  "norad_id": 61612,
  "name": "ONEWEB-0707",
  "history": [
    {
      "epoch": "2026-03-28T21:22:41.352960",
      "apogee_km": 1223.3941749742535,
      "perigee_km": 1220.041271067551,
      "latitude_deg": 82.84340732263232,
      "longitude_deg": 66.71261440007947,
      "semi_major_axis_km": 7599.8547230209015,
      "eccentricity": 0.00022059,
      "inclination_deg": 87.8813,
      "raan_deg": 52.2335,
      "arg_perigee_deg": 67.2114,
      "mean_anomaly_deg": 292.9247,
      "mean_motion_rev_day": 13.10372669
    },
    {
      "epoch": "2026-03-29T04:42:30.478176",
      "apogee_km": 1223.3839207633655,
      "perigee_km": 1220.0460657679232,
      "latitude_deg": -4.354837049066171,
      "longitude_deg": 96.03386464016512,
      "semi_major_axis_km": 7599.851993265644,
      "eccentricity": 0.0002196,
      "inclination_deg": 87.8815,
      "raan_deg": 52.1726,
      "arg_perigee_deg": 67.01,
      "mean_anomaly_deg": 293.1259,
      "mean_motion_rev_day": 13.10373375
    }
  ]
}